ONEWEB-0474             
1 51654U 22012AJ  24049.92102940 -.00000551  00000+0 -16134-2 0  9993
2 51654  87.8929 204.9779 0001790  93.5550 266.5782 13.10373640 98076
ONEWEB-0490             
1 54113U 22138A   24049.91067889  .00000078  00000+0  16235-3 0  9991
2 54113  87.9159 114.0363 0001994  96.0129 264.1231 13.19725142 64816
ONEWEB-0492             
1 54114U 22138B   24049.93594979  .00000046  00000+0  82400-4 0  9992
2 54114  87.9163 114.0280 0002035  90.4355 269.7011 13.19724716 64820
ONEWEB-0495             
1 54115U 22138C   24049.91383941  .00000096  00000+0  20685-3 0  9997
2 54115  87.9165 114.0439 0002279  92.9204 267.2189 13.19724611 64800
ONEWEB-0497             
1 54116U 22138D   24049.92647673  .00000058  00000+0  11154-3 0  9993
2 54116  87.9159 114.0346 0002010  96.4340 263.7022 13.19724272 64792
ONEWEB-0499             
1 54117U 22138E   24049.90910307  .00000045  00000+0  80659-4 0  9992
2 54117  87.9164 114.0339 0002465 106.9102 253.2301 13.19725379 64803
ONEWEB-0500             
1 54118U 22138F   24049.91226118  .00000077  00000+0  16056-3 0  9998
2 54118  87.9162 114.0331 0001913  96.3871 263.7480 13.19724274 64814
